OBJECT_NAME,OBJECT_ID,EPOCH,MEAN_MOTION,ECCENTRICITY,INCLINATION,RA_OF_ASC_NODE,ARG_OF_PERICENTER,MEAN_ANOMALY,EPHEMERIS_TYPE,CLASSIFICATION_TYPE,NORAD_CAT_ID,ELEMENT_SET_NO,REV_AT_EPOCH,BSTAR,MEAN_MOTION_DOT,MEAN_MOTION_DDOT
M2 PATHFINDER,2020-037E,2026-07-18T12:00:39.445920,15.04796790,.00126028,97.8140,31.0865,52.1110,308.1253,0,U,45727,999,33020,.58406323E-4,.761E-5,0
NETSAT-4,2020-068U,2026-07-18T11:37:48.258048,15.44824572,.00051455,97.8607,210.2643,181.7593,178.3637,0,U,46504,999,32060,.19939976E-3,.925E-4,0
NETSAT-3,2020-068V,2026-07-18T18:34:08.200128,15.43682785,.0004286,97.8660,208.7553,195.7035,164.4079,0,U,46505,999,32055,.22205E-3,.9919E-4,0
NETSAT-1,2020-068W,2026-07-18T18:02:43.621728,15.35293523,.0002647,97.8760,202.6825,241.4202,118.6774,0,U,46506,999,32014,.19126E-3,.6465E-4,0
NETSAT-2,2020-068X,2026-07-18T20:47:34.120032,15.47264654,.0002684,97.8620,210.6948,193.3094,166.8084,0,U,46507,999,32063,.26559E-3,.13436E-3,0
GREENCUBE (IO-117),2022-080E,2026-07-18T14:56:54.558816,6.42583326,.0009081,70.1404,287.3145,282.7035,77.2609,0,U,53109,999,9408,0,-.3E-7,0
SITRO-AIS 5 (KATYS),2023-091L,2026-07-18T20:37:02.059104,15.30110909,.0010262,97.5038,264.0721,359.3779,0.7447,0,U,57176,999,16918,.21569E-3,.6215E-4,0
SITRO-AIS 6 (CHIRKIN),2023-091AC,2026-07-18T20:19:17.260320,15.26475378,.0010788,97.5046,263.0079,3.7355,356.3962,0,U,57192,999,16911,.19661E-3,.506E-4,0
SITRO-AIS 8 (ANOKHIN),2023-091AD,2026-07-18T19:39:55.772064,15.32912721,.000914,97.5034,265.7527,354.7031,5.4112,0,U,57193,999,16929,.22707E-3,.7146E-4,0
SITRO-AIS 7 (FARTUSHNIY),2023-091AE,2026-07-18T20:33:21.777984,15.26148265,.0010758,97.5042,262.8258,5.0719,355.0626,0,U,57194,999,16910,.19325E-3,.4923E-4,0
SITRO-AIS 10 (BURDAEV),2023-091AK,2026-07-18T20:16:07.257216,15.39709663,.0004568,97.5060,271.1675,324.7835,35.3108,0,U,57199,999,16963,.27021E-3,.10598E-3,0
SITRO-AIS 9 (SHCHUKIN),2023-091AM,2026-07-18T19:35:26.140128,15.39191731,.0004826,97.5058,270.8430,325.7533,34.3401,0,U,57201,999,16961,.27417E-3,.10573E-3,0
SITRO-AIS 12 (SMIRENNIY),2023-091AQ,2026-07-18T20:46:50.716128,15.39488388,.0004443,97.5071,271.3810,317.1616,42.9283,0,U,57204,999,16964,.27649E-3,.10768E-3,0
SITRO-AIS 11 (SHEFFER),2023-091AU,2026-07-18T19:19:41.712096,15.39933907,.0004383,97.5069,271.5860,316.4019,43.6880,0,U,57208,999,16965,.28398E-3,.11225E-3,0
SITRO-AIS 25,2024-039R,2026-07-18T20:44:51.245664,14.93654809,.0143087,95.3889,256.8601,216.5489,142.5908,0,U,59066,999,12945,.11299E-3,.1425E-4,0
SITRO-AIS 26,2024-039S,2026-07-18T20:53:07.482336,14.93445985,.0143413,95.3890,256.7551,217.1458,141.9779,0,U,59067,999,12944,.10453E-3,.1309E-4,0
SITRO-AIS 27,2024-039T,2026-07-18T19:57:24.827904,14.93869830,.014253,95.3895,257.0151,215.7957,143.3653,0,U,59068,999,12946,.13296E-3,.1691E-4,0
SITRO-AIS 28,2024-039U,2026-07-18T21:00:21.667392,14.93904708,.0142396,95.3894,257.0941,215.4857,143.6834,0,U,59071,999,12947,.10481E-3,.1326E-4,0
GRBBETA,2024-128C,2026-07-18T17:49:51.032064,15.06821405,.0036607,61.9888,105.5364,141.4640,218.9077,0,U,60237,999,11102,.11932E-3,.159E-4,0
OOV-CUBE (TUBSAT-30),2024-128F,2026-07-18T07:51:47.200896,15.02880941,.00407214,61.9941,116.9785,140.6907,219.7153,0,U,60240,999,11079,.8229489E-4,.912E-5,0
ROBUSTA-3A (MEDITERRANEE),2024-128J,2026-07-18T19:34:43.265856,15.12015843,.0037652,61.9861,96.3647,134.3477,226.0714,0,U,60243,999,11120,.22674E-3,.375E-4,0
LASARSAT,2024-247Q,2026-07-17T23:09:42.630336,15.48162669,.00078224,44.9738,89.0178,183.9645,176.1185,0,U,62391,999,8808,.40982684E-3,.21749E-3,0
CROCUBE,2024-247T,2026-07-18T16:41:52.956384,15.50367216,.0008147,44.9712,81.6809,194.4286,165.6374,0,U,62394,999,8823,.40086E-3,.23011E-3,0
FORESAIL-1 PRIME,2025-276DS,2026-07-18T18:02:17.676672,15.18955093,.000258,97.4186,272.4479,37.1807,322.9605,0,U,66778,999,3519,.11424E-3,.232E-4,0
KNACKSAT-2,1998-067XZ,2026-07-18T01:44:50.703648,15.62605935,.00079174,51.6275,138.8026,337.9309,22.1343,0,U,67683,999,2510,.3768944E-3,.34011E-3,0
