M2 PATHFINDER           
1 45727U 20037E   26199.50045655  .00000761  00000+0  58406-4 0  9994
2 45727  97.8140  31.0865 0012602  52.1110 308.1253 15.04796790330208
NETSAT-4                
1 46504U 20068U   26199.48458632  .00009250  00000+0  19940-3 0  9993
2 46504  97.8607 210.2643 0005145 181.7593 178.3637 15.44824572320603
NETSAT-3                
1 46505U 20068V   26199.77370602  .00009919  00000+0  22205-3 0  9996
2 46505  97.8660 208.7553 0004286 195.7035 164.4079 15.43682785320553
NETSAT-1                
1 46506U 20068W   26199.75189377  .00006465  00000+0  19126-3 0  9993
2 46506  97.8760 202.6825 0002647 241.4202 118.6774 15.35293523320141
NETSAT-2                
1 46507U 20068X   26199.86636713  .00013436  00000+0  26559-3 0  9991
2 46507  97.8620 210.6948 0002684 193.3094 166.8084 15.47264654320636
GREENCUBE (IO-117)      
1 53109U 22080E   26199.62285369 -.00000003  00000+0  00000+0 0  9990
2 53109  70.1404 287.3145 0009081 282.7035  77.2609  6.42583326 94082
SITRO-AIS 5 (KATYS)     
1 57176U 23091L   26199.85905161  .00006215  00000+0  21569-3 0  9992
2 57176  97.5038 264.0721 0010262 359.3779   0.7447 15.30110909169182
SITRO-AIS 6 (CHIRKIN)   
1 57192U 23091AC  26199.84672755  .00005060  00000+0  19661-3 0  9996
2 57192  97.5046 263.0079 0010788   3.7355 356.3962 15.26475378169111
SITRO-AIS 8 (ANOKHIN)   
1 57193U 23091AD  26199.81939551  .00007146  00000+0  22707-3 0  9996
2 57193  97.5034 265.7527 0009140 354.7031   5.4112 15.32912721169299
SITRO-AIS 7 (FARTUSHNIY)
1 57194U 23091AE  26199.85650206  .00004923  00000+0  19325-3 0  9990
2 57194  97.5042 262.8258 0010758   5.0719 355.0626 15.26148265169105
SITRO-AIS 10 (BURDAEV)  
1 57199U 23091AK  26199.84452844  .00010598  00000+0  27021-3 0  9999
2 57199  97.5060 271.1675 0004568 324.7835  35.3108 15.39709663169638
SITRO-AIS 9 (SHCHUKIN)  
1 57201U 23091AM  26199.81627477  .00010573  00000+0  27417-3 0  9998
2 57201  97.5058 270.8430 0004826 325.7533  34.3401 15.39191731169611
SITRO-AIS 12 (SMIRENNIY)
1 57204U 23091AQ  26199.86586477  .00010768  00000+0  27649-3 0  9993
2 57204  97.5071 271.3810 0004443 317.1616  42.9283 15.39488388169642
SITRO-AIS 11 (SHEFFER)  
1 57208U 23091AU  26199.80534389  .00011225  00000+0  28398-3 0  9997
2 57208  97.5069 271.5860 0004383 316.4019  43.6880 15.39933907169656
SITRO-AIS 25            
1 59066U 24039R   26199.86448201  .00001425  00000+0  11299-3 0  9990
2 59066  95.3889 256.8601 0143087 216.5489 142.5908 14.93654809129455
SITRO-AIS 26            
1 59067U 24039S   26199.87022549  .00001309  00000+0  10453-3 0  9997
2 59067  95.3890 256.7551 0143413 217.1458 141.9779 14.93445985129448
SITRO-AIS 27            
1 59068U 24039T   26199.83153736  .00001691  00000+0  13296-3 0  9999
2 59068  95.3895 257.0151 0142530 215.7957 143.3653 14.93869830129469
SITRO-AIS 28            
1 59071U 24039U   26199.87525078  .00001326  00000+0  10481-3 0  9997
2 59071  95.3894 257.0941 0142396 215.4857 143.6834 14.93904708129474
GRBBETA                 
1 60237U 24128C   26199.74295176  .00001590  00000+0  11932-3 0  9996
2 60237  61.9888 105.5364 0036607 141.4640 218.9077 15.06821405111027
OOV-CUBE (TUBSAT-30)    
1 60240U 24128F   26199.32762964  .00000912  00000+0  82295-4 0  9996
2 60240  61.9941 116.9785 0040721 140.6907 219.7153 15.02880941110796
ROBUSTA-3A (MEDITERRAN*)
1 60243U 24128J   26199.81577854  .00003750  00000+0  22674-3 0  9992
2 60243  61.9861  96.3647 0037652 134.3477 226.0714 15.12015843111202
LASARSAT                
1 62391U 24247Q   26198.96507674  .00021749  00000+0  40983-3 0  9999
2 62391  44.9738  89.0178 0007822 183.9645 176.1185 15.48162669 88087
CROCUBE                 
1 62394U 24247T   26199.69575181  .00023011  00000+0  40086-3 0  9999
2 62394  44.9712  81.6809 0008147 194.4286 165.6374 15.50367216 88238
FORESAIL-1 PRIME        
1 66778U 25276DS  26199.75159348  .00002320  00000+0  11424-3 0  9996
2 66778  97.4186 272.4479 0002580  37.1807 322.9605 15.18955093 35198
KNACKSAT-2              
1 67683U 98067XZ  26199.07280907  .00034011  00000+0  37689-3 0  9994
2 67683  51.6275 138.8026 0007917 337.9309  22.1343 15.62605935 25109
